{
  "type": "FeatureCollection",
  "features": [
    {
      "type": "Feature",
      "properties": {
        "norad_id": 34482,
        "name": "COSMOS 2251 DEB",
        "group": "cosmos-2251-debris",
        "lat": -1.2309622150150135,
        "lon": 15.726830745437642,
        "alt_km": 655.5567264688198,
        "timestamp": "2025-12-27T07:26:25.615068+00:00",
        "meta_object_name": "COSMOS 2251 DEB",
        "meta_object_id": "1993-036UB",
        "meta_epoch": "2025-12-26T14:35:03.188256",
        "meta_mean_motion": 14.69449825,
        "meta_eccentricity": 0.0044286,
        "meta_inclination": 74.0358,
        "meta_ra_of_asc_node": 196.7344,
        "meta_arg_of_pericenter": 254.1792,
        "meta_mean_anomaly": 173.5782,
        "meta_ephemeris_type": 0,
        "meta_classification_type": "U",
        "meta_norad_cat_id": 34482,
        "meta_element_set_no": 999,
        "meta_rev_at_epoch": 88391,
        "meta_bstar": 0.0018294,
        "meta_mean_motion_dot": 0.00010984,
        "meta_mean_motion_ddot": 0,
        "tle_line1": "1 34482U 93036UB  25360.60767579  .00010984  00000+0  18294-2 0  9992",
        "tle_line2": "2 34482  74.0358 196.7344 0044286 254.1792 173.5782 14.69449825883912"
      },
      "geometry": {
        "type": "Point",
        "coordinates": [
          15.726830745437642,
          -1.2309622150150135
        ]
      }
    },
    {
      "type": "Feature",
      "properties": {
        "norad_id": 34544,
        "name": "COSMOS 2251 DEB",
        "group": "cosmos-2251-debris",
        "lat": 2.847628084512694,
        "lon": -0.3813481189535131,
        "alt_km": 806.0729328513635,
        "timestamp": "2025-12-27T07:26:25.615078+00:00",
        "meta_object_name": "COSMOS 2251 DEB",
        "meta_object_id": "1993-036UE",
        "meta_epoch": "2025-12-26T20:14:39.256224",
        "meta_mean_motion": 13.54677608,
        "meta_eccentricity": 0.03835067,
        "meta_inclination": 73.9136,
        "meta_ra_of_asc_node": 181.1961,
        "meta_arg_of_pericenter": 207.0709,
        "meta_mean_anomaly": 217.7039,
        "meta_ephemeris_type": 0,
        "meta_classification_type": "U",
        "meta_norad_cat_id": 34544,
        "meta_element_set_no": 999,
        "meta_rev_at_epoch": 83073,
        "meta_bstar": 0.00061952513,
        "meta_mean_motion_dot": 6.56e-06,
        "meta_mean_motion_ddot": 0,
        "tle_line1": "1 34544U 93036UE  25360.84350991  .00000656  00000+0  61953-3 0  9999",
        "tle_line2": "2 34544  73.9136 181.1961 0383506 207.0709 217.7039 13.54677608830735"
      },
      "geometry": {
        "type": "Point",
        "coordinates": [
          -0.3813481189535131,
          2.847628084512694
        ]
      }
    },
    {
      "type": "Feature",
      "properties": {
        "norad_id": 34546,
        "name": "COSMOS 2251 DEB",
        "group": "cosmos-2251-debris",
        "lat": -23.959680885167444,
        "lon": 49.329607010371355,
        "alt_km": 745.3894393513456,
        "timestamp": "2025-12-27T07:26:25.615089+00:00",
        "meta_object_name": "COSMOS 2251 DEB",
        "meta_object_id": "1993-036UG",
        "meta_epoch": "2025-12-26T15:49:40.531296",
        "meta_mean_motion": 14.4546565,
        "meta_eccentricity": 0.00220592,
        "meta_inclination": 74.0292,
        "meta_ra_of_asc_node": 223.2308,
        "meta_arg_of_pericenter": 295.4616,
        "meta_mean_anomaly": 125.9339,
        "meta_ephemeris_type": 0,
        "meta_classification_type": "U",
        "meta_norad_cat_id": 34546,
        "meta_element_set_no": 999,
        "meta_rev_at_epoch": 88227,
        "meta_bstar": 0.0005439353,
        "meta_mean_motion_dot": 1.895e-05,
        "meta_mean_motion_ddot": 0,
        "tle_line1": "1 34546U 93036UG  25360.65949689  .00001895  00000+0  54394-3 0  9995",
        "tle_line2": "2 34546  74.0292 223.2308 0022059 295.4616 125.9339 14.45465650882278"
      },
      "geometry": {
        "type": "Point",
        "coordinates": [
          49.329607010371355,
          -23.959680885167444
        ]
      }
    },
    {
      "type": "Feature",
      "properties": {
        "norad_id": 34547,
        "name": "COSMOS 2251 DEB",
        "group": "cosmos-2251-debris",
        "lat": 11.02574398312061,
        "lon": 75.55237210512512,
        "alt_km": 661.9144573263193,
        "timestamp": "2025-12-27T07:26:25.615099+00:00",
        "meta_object_name": "COSMOS 2251 DEB",
        "meta_object_id": "1993-036UH",
        "meta_epoch": "2025-12-26T11:49:24.852000",
        "meta_mean_motion": 14.72636699,
        "meta_eccentricity": 0.001571,
        "meta_inclination": 74.0294,
        "meta_ra_of_asc_node": 73.9449,
        "meta_arg_of_pericenter": 151.3373,
        "meta_mean_anomaly": 208.8666,
        "meta_ephemeris_type": 0,
        "meta_classification_type": "U",
        "meta_norad_cat_id": 34547,
        "meta_element_set_no": 999,
        "meta_rev_at_epoch": 88724,
        "meta_bstar": 0.00164,
        "meta_mean_motion_dot": 0.00010451,
        "meta_mean_motion_ddot": 0,
        "tle_line1": "1 34547U 93036UH  25360.49264875  .00010451  00000+0  16400-2 0  9998",
        "tle_line2": "2 34547  74.0294  73.9449 0015710 151.3373 208.8666 14.72636699887242"
      },
      "geometry": {
        "type": "Point",
        "coordinates": [
          75.55237210512512,
          11.02574398312061
        ]
      }
    },
    {
      "type": "Feature",
      "properties": {
        "norad_id": 34553,
        "name": "COSMOS 2251 DEB",
        "group": "cosmos-2251-debris",
        "lat": -35.61532512016293,
        "lon": -3.9893757173513826,
        "alt_km": 693.6631307903644,
        "timestamp": "2025-12-27T07:26:25.615109+00:00",
        "meta_object_name": "COSMOS 2251 DEB",
        "meta_object_id": "1993-036UP",
        "meta_epoch": "2025-12-26T10:49:08.948064",
        "meta_mean_motion": 14.57851907,
        "meta_eccentricity": 0.0019035,
        "meta_inclination": 74.025,
        "meta_ra_of_asc_node": 165.8036,
        "meta_arg_of_pericenter": 242.4865,
        "meta_mean_anomaly": 147.2003,
        "meta_ephemeris_type": 0,
        "meta_classification_type": "U",
        "meta_norad_cat_id": 34553,
        "meta_element_set_no": 999,
        "meta_rev_at_epoch": 88296,
        "meta_bstar": 0.0012095,
        "meta_mean_motion_dot": 5.528e-05,
        "meta_mean_motion_ddot": 0,
        "tle_line1": "1 34553U 93036UP  25360.45079801  .00005528  00000+0  12095-2 0  9999",
        "tle_line2": "2 34553  74.0250 165.8036 0019035 242.4865 147.2003 14.57851907882965"
      },
      "geometry": {
        "type": "Point",
        "coordinates": [
          -3.9893757173513826,
          -35.61532512016293
        ]
      }
    },
    {
      "type": "Feature",
      "properties": {
        "norad_id": 34554,
        "name": "COSMOS 2251 DEB",
        "group": "cosmos-2251-debris",
        "lat": 3.568782593513641,
        "lon": -86.8137971360612,
        "alt_km": 753.0727215227917,
        "timestamp": "2025-12-27T07:26:25.615119+00:00",
        "meta_object_name": "COSMOS 2251 DEB",
        "meta_object_id": "1993-036UQ",
        "meta_epoch": "2025-12-26T18:12:27.499968",
        "meta_mean_motion": 14.37965556,
        "meta_eccentricity": 0.00235796,
        "meta_inclination": 74.039,
        "meta_ra_of_asc_node": 273.1783,
        "meta_arg_of_pericenter": 332.916,
        "meta_mean_anomaly": 57.668,
        "meta_ephemeris_type": 0,
        "meta_classification_type": "U",
        "meta_norad_cat_id": 34554,
        "meta_element_set_no": 999,
        "meta_rev_at_epoch": 87957,
        "meta_bstar": 0.00031632746,
        "meta_mean_motion_dot": 9.33e-06,
        "meta_mean_motion_ddot": 0,
        "tle_line1": "1 34554U 93036UQ  25360.75865162  .00000933  00000+0  31633-3 0  9991",
        "tle_line2": "2 34554  74.0390 273.1783 0023579 332.9160  57.6680 14.37965556879576"
      },
      "geometry": {
        "type": "Point",
        "coordinates": [
          -86.8137971360612,
          3.568782593513641
        ]
      }
    },
    {
      "type": "Feature",
      "properties": {
        "norad_id": 34556,
        "name": "COSMOS 2251 DEB",
        "group": "cosmos-2251-debris",
        "lat": 70.11209316260044,
        "lon": -136.19801013755733,
        "alt_km": 625.1650414197911,
        "timestamp": "2025-12-27T07:26:25.615129+00:00",
        "meta_object_name": "COSMOS 2251 DEB",
        "meta_object_id": "1993-036US",
        "meta_epoch": "2025-12-26T06:45:30.335040",
        "meta_mean_motion": 14.78213795,
        "meta_eccentricity": 0.0006041,
        "meta_inclination": 74.0152,
        "meta_ra_of_asc_node": 98.2328,
        "meta_arg_of_pericenter": 157.1628,
        "meta_mean_anomaly": 234.2756,
        "meta_ephemeris_type": 0,
        "meta_classification_type": "U",
        "meta_norad_cat_id": 34556,
        "meta_element_set_no": 999,
        "meta_rev_at_epoch": 88529,
        "meta_bstar": 0.0021721,
        "meta_mean_motion_dot": 0.00015763,
        "meta_mean_motion_ddot": 0,
        "tle_line1": "1 34556U 93036US  25360.28160110  .00015763  00000+0  21721-2 0  9995",
        "tle_line2": "2 34556  74.0152  98.2328 0006041 157.1628 234.2756 14.78213795885295"
      },
      "geometry": {
        "type": "Point",
        "coordinates": [
          -136.19801013755733,
          70.11209316260044
        ]
      }
    }
  ]
}